[{"OBJECT_NAME":"GEESAT-5 08","OBJECT_ID":"2025-201H","EPOCH":"2026-03-09T15:40:14.033280","MEAN_MOTION":14.82473917,"ECCENTRICITY":0.00022548,"INCLINATION":49.9778,"RA_OF_ASC_NODE":136.434,"ARG_OF_PERICENTER":280.4345,"MEAN_ANOMALY":79.6338,"EPHEMERIS_TYPE":0,"CLASSIFICATION_TYPE":"U","NORAD_CAT_ID":65557,"ELEMENT_SET_NO":999,"REV_AT_EPOCH":2708,"BSTAR":0.00033377035,"MEAN_MOTION_DOT":2.484e-5,"MEAN_MOTION_DDOT":0},{"OBJECT_NAME":"YAOGAN-30 01 DEB","OBJECT_ID":"2016-029B","EPOCH":"2026-03-09T12:08:48.775776","MEAN_MOTION":14.31242282,"ECCENTRICITY":0.02331742,"INCLINATION":98.0449,"RA_OF_ASC_NODE":262.4349,"ARG_OF_PERICENTER":34.2713,"MEAN_ANOMALY":327.3271,"EPHEMERIS_TYPE":0,"CLASSIFICATION_TYPE":"U","NORAD_CAT_ID":42676,"ELEMENT_SET_NO":999,"REV_AT_EPOCH":49780,"BSTAR":0.00047222138,"MEAN_MOTION_DOT":1.638e-5,"MEAN_MOTION_DDOT":0}]
